[{"OBJECT_NAME":"OOV-CUBE (TUBSAT-30)","OBJECT_ID":"2024-128F","EPOCH":"2026-03-14T19:42:41.834592","MEAN_MOTION":15.02295176,"ECCENTRICITY":0.00540903,"INCLINATION":61.9949,"RA_OF_ASC_NODE":194.5051,"ARG_OF_PERICENTER":113.3874,"MEAN_ANOMALY":247.2919,"EPHEMERIS_TYPE":0,"CLASSIFICATION_TYPE":"U","NORAD_CAT_ID":60240,"ELEMENT_SET_NO":999,"REV_AT_EPOCH":9193,"BSTAR":0.00030018279,"MEAN_MOTION_DOT":3.896e-5,"MEAN_MOTION_DDOT":0}]
