OOV-CUBE (TUBSAT-30)    
1 60240U 24128F   26073.82131753  .00003896  00000+0  30018-3 0  9997
2 60240  61.9949 194.5051 0054090 113.3874 247.2919 15.02295176 91936
